{
  "type": "FeatureCollection",
  "features": [
    {
      "type": "Feature",
      "properties": {
        "norad_id": 67011,
        "name": "STARLINK-36167",
        "group": "last-30-days",
        "lat": -26.59828784825664,
        "lon": -71.88101559783131,
        "alt_km": 307.5749643591889,
        "timestamp": "2025-12-21T09:37:21.374923+00:00",
        "meta_object_name": "STARLINK-36167",
        "meta_object_id": "2025-293J",
        "meta_epoch": "2025-12-21T04:00:01.998720",
        "meta_mean_motion": 15.90141829,
        "meta_eccentricity": 0.0003901,
        "meta_inclination": 69.9933,
        "meta_ra_of_asc_node": 299.3096,
        "meta_arg_of_pericenter": 270.5815,
        "meta_mean_anomaly": 160.7121,
        "meta_ephemeris_type": 0,
        "meta_classification_type": "U",
        "meta_norad_cat_id": 67011,
        "meta_element_set_no": 999,
        "meta_rev_at_epoch": 147,
        "meta_bstar": -0.0041574,
        "meta_mean_motion_dot": -0.01252836,
        "meta_mean_motion_ddot": 0.00044994,
        "tle_line1": "1 67011U 25293J   25355.16668980 -.01252836  44994-3 -41574-2 0  9995",
        "tle_line2": "2 67011  69.9933 299.3096 0003901 270.5815 160.7121 15.90141829  1475"
      },
      "geometry": {
        "type": "Point",
        "coordinates": [
          -71.88101559783131,
          -26.59828784825664
        ]
      }
    },
    {
      "type": "Feature",
      "properties": {
        "norad_id": 67012,
        "name": "STARLINK-36175",
        "group": "last-30-days",
        "lat": -21.943310774172705,
        "lon": -69.81543783076188,
        "alt_km": 306.70221514617515,
        "timestamp": "2025-12-21T09:37:21.374953+00:00",
        "meta_object_name": "STARLINK-36175",
        "meta_object_id": "2025-293K",
        "meta_epoch": "2025-12-21T04:00:01.998720",
        "meta_mean_motion": 15.89986067,
        "meta_eccentricity": 0.0004365,
        "meta_inclination": 69.9933,
        "meta_ra_of_asc_node": 299.304,
        "meta_arg_of_pericenter": 272.8833,
        "meta_mean_anomaly": 163.4303,
        "meta_ephemeris_type": 0,
        "meta_classification_type": "U",
        "meta_norad_cat_id": 67012,
        "meta_element_set_no": 999,
        "meta_rev_at_epoch": 147,
        "meta_bstar": -0.0019223,
        "meta_mean_motion_dot": -0.00577747,
        "meta_mean_motion_ddot": 0.00010724,
        "tle_line1": "1 67012U 25293K   25355.16668980 -.00577747  10724-3 -19223-2 0  9996",
        "tle_line2": "2 67012  69.9933 299.3040 0004365 272.8833 163.4303 15.89986067  1476"
      },
      "geometry": {
        "type": "Point",
        "coordinates": [
          -69.81543783076188,
          -21.943310774172705
        ]
      }
    },
    {
      "type": "Feature",
      "properties": {
        "norad_id": 67013,
        "name": "STARLINK-35856",
        "group": "last-30-days",
        "lat": -19.400719103032532,
        "lon": -68.75034329754538,
        "alt_km": 307.0490302063927,
        "timestamp": "2025-12-21T09:37:21.374965+00:00",
        "meta_object_name": "STARLINK-35856",
        "meta_object_id": "2025-293L",
        "meta_epoch": "2025-12-21T04:00:01.998720",
        "meta_mean_motion": 15.90236375,
        "meta_eccentricity": 0.0003907,
        "meta_inclination": 69.9931,
        "meta_ra_of_asc_node": 299.3005,
        "meta_arg_of_pericenter": 271.2822,
        "meta_mean_anomaly": 167.6938,
        "meta_ephemeris_type": 0,
        "meta_classification_type": "U",
        "meta_norad_cat_id": 67013,
        "meta_element_set_no": 999,
        "meta_rev_at_epoch": 147,
        "meta_bstar": -0.0041999,
        "meta_mean_motion_dot": -0.01271538,
        "meta_mean_motion_ddot": 0.00046284,
        "tle_line1": "1 67013U 25293L   25355.16668980 -.01271538  46284-3 -41999-2 0  9992",
        "tle_line2": "2 67013  69.9931 299.3005 0003907 271.2822 167.6938 15.90236375  1470"
      },
      "geometry": {
        "type": "Point",
        "coordinates": [
          -68.75034329754538,
          -19.400719103032532
        ]
      }
    },
    {
      "type": "Feature",
      "properties": {
        "norad_id": 67014,
        "name": "STARLINK-36207",
        "group": "last-30-days",
        "lat": -17.01690299548104,
        "lon": -67.78293370269719,
        "alt_km": 306.3542971728557,
        "timestamp": "2025-12-21T09:37:21.374975+00:00",
        "meta_object_name": "STARLINK-36207",
        "meta_object_id": "2025-293M",
        "meta_epoch": "2025-12-21T04:00:01.998720",
        "meta_mean_motion": 15.90047582,
        "meta_eccentricity": 0.0004343,
        "meta_inclination": 69.9936,
        "meta_ra_of_asc_node": 299.2979,
        "meta_arg_of_pericenter": 273.1616,
        "meta_mean_anomaly": 168.3918,
        "meta_ephemeris_type": 0,
        "meta_classification_type": "U",
        "meta_norad_cat_id": 67014,
        "meta_element_set_no": 999,
        "meta_rev_at_epoch": 153,
        "meta_bstar": -0.0019551,
        "meta_mean_motion_dot": -0.00589378,
        "meta_mean_motion_ddot": 0.00011133,
        "tle_line1": "1 67014U 25293M   25355.16668980 -.00589378  11133-3 -19551-2 0  9990",
        "tle_line2": "2 67014  69.9936 299.2979 0004343 273.1616 168.3918 15.90047582  1535"
      },
      "geometry": {
        "type": "Point",
        "coordinates": [
          -67.78293370269719,
          -17.01690299548104
        ]
      }
    },
    {
      "type": "Feature",
      "properties": {
        "norad_id": 67015,
        "name": "STARLINK-36093",
        "group": "last-30-days",
        "lat": -12.298241901869366,
        "lon": -65.94285205564452,
        "alt_km": 306.4171109208037,
        "timestamp": "2025-12-21T09:37:21.374987+00:00",
        "meta_object_name": "STARLINK-36093",
        "meta_object_id": "2025-293N",
        "meta_epoch": "2025-12-21T04:00:01.998720",
        "meta_mean_motion": 15.90331203,
        "meta_eccentricity": 0.0003958,
        "meta_inclination": 69.9932,
        "meta_ra_of_asc_node": 299.2915,
        "meta_arg_of_pericenter": 271.8542,
        "meta_mean_anomaly": 174.6473,
        "meta_ephemeris_type": 0,
        "meta_classification_type": "U",
        "meta_norad_cat_id": 67015,
        "meta_element_set_no": 999,
        "meta_rev_at_epoch": 147,
        "meta_bstar": -0.0042374,
        "meta_mean_motion_dot": -0.01288889,
        "meta_mean_motion_ddot": 0.000475,
        "tle_line1": "1 67015U 25293N   25355.16668980 -.01288889  47500-3 -42374-2 0  9991",
        "tle_line2": "2 67015  69.9932 299.2915 0003958 271.8542 174.6473 15.90331203  1471"
      },
      "geometry": {
        "type": "Point",
        "coordinates": [
          -65.94285205564452,
          -12.298241901869366
        ]
      }
    },
    {
      "type": "Feature",
      "properties": {
        "norad_id": 67016,
        "name": "STARLINK-36120",
        "group": "last-30-days",
        "lat": -14.803901064723334,
        "lon": -66.90936722509977,
        "alt_km": 306.6755315700284,
        "timestamp": "2025-12-21T09:37:21.374997+00:00",
        "meta_object_name": "STARLINK-36120",
        "meta_object_id": "2025-293P",
        "meta_epoch": "2025-12-21T04:00:01.998720",
        "meta_mean_motion": 15.90298882,
        "meta_eccentricity": 0.0003911,
        "meta_inclination": 69.9933,
        "meta_ra_of_asc_node": 299.2949,
        "meta_arg_of_pericenter": 271.1531,
        "meta_mean_anomaly": 172.6972,
        "meta_ephemeris_type": 0,
        "meta_classification_type": "U",
        "meta_norad_cat_id": 67016,
        "meta_element_set_no": 999,
        "meta_rev_at_epoch": 147,
        "meta_bstar": -0.0042224,
        "meta_mean_motion_dot": -0.01282266,
        "meta_mean_motion_ddot": 0.00047036,
        "tle_line1": "1 67016U 25293P   25355.16668980 -.01282266  47036-3 -42224-2 0  9993",
        "tle_line2": "2 67016  69.9933 299.2949 0003911 271.1531 172.6972 15.90298882  1477"
      },
      "geometry": {
        "type": "Point",
        "coordinates": [
          -66.90936722509977,
          -14.803901064723334
        ]
      }
    },
    {
      "type": "Feature",
      "properties": {
        "norad_id": 67017,
        "name": "STARLINK-35498",
        "group": "last-30-days",
        "lat": -9.957588024803984,
        "lon": -65.05762525347313,
        "alt_km": 306.21943070361795,
        "timestamp": "2025-12-21T09:37:21.375011+00:00",
        "meta_object_name": "STARLINK-35498",
        "meta_object_id": "2025-293Q",
        "meta_epoch": "2025-12-21T04:00:01.998720",
        "meta_mean_motion": 15.90364268,
        "meta_eccentricity": 0.0003963,
        "meta_inclination": 69.993,
        "meta_ra_of_asc_node": 299.2885,
        "meta_arg_of_pericenter": 271.2731,
        "meta_mean_anomaly": 177.6993,
        "meta_ephemeris_type": 0,
        "meta_classification_type": "U",
        "meta_norad_cat_id": 67017,
        "meta_element_set_no": 999,
        "meta_rev_at_epoch": 166,
        "meta_bstar": -0.00425,
        "meta_mean_motion_dot": -0.01294855,
        "meta_mean_motion_ddot": 0.00047922,
        "tle_line1": "1 67017U 25293Q   25355.16668980 -.01294855  47922-3 -42500-2 0  9992",
        "tle_line2": "2 67017  69.9930 299.2885 0003963 271.2731 177.6993 15.90364268  1665"
      },
      "geometry": {
        "type": "Point",
        "coordinates": [
          -65.05762525347313,
          -9.957588024803984
        ]
      }
    }
  ]
}